#dP2020  2 28  0  0  0.00000000      96 __u+U ITR00 FIT  IAC
## 2094 432000.00000000   900.00000000 58907 0.0000000000000
+  114   C01C02C03C04C05C06C07C08C09C10C11C12C13C14C16C19C20
+        C21C22C23C24C25C26C27C28C29C30C32C33C34C35C36C37E01
+        E02E03E04E05E07E08E09E11E12E13E14E15E18E19E21E24E25
+        E26E27E30E31E33E36G01G02G03G04G05G06G07G08G09G10G11
+        G12G13G14G15G16G17G18G19G20G21G22G23G24G25G26G27G28
+        G29G30G31G32J01J02J03R01R02R03R04R05R07R08R09R11R12
+        R13R14R15R16R17R18R19R20R21R22R23R26  0  0  0  0  0
++        13  0 13 13  0  9  8  9  8  8  8  8  8  7  8  8  7
++         8  8  8  8  8  8  7  8  8  8  8  7  9  8  8  8  5
++         5  5  5  5  4  4  5  5  5  5  5  5  4  4  4  5  5
++         4  5  5  5  5  5  3  4  3  3  4  3  3  3  3  3  3
++         3  4  4  4  4  3  4  3  3  4  3  4  3  3  3  4  3
++         4  3  4  3  9  9  8  6  6  6  6  5  5  5  6  5  6
++         6  5  5  6  6  6  7  6  5  5  5  8  0  0  0  0  0
%c M  cc GPS ccc cccc cccc cccc cccc ccccc ccccc ccccc ccccc
%c cc cc ccc ccc cccc cccc cccc cccc ccccc ccccc ccccc ccccc
%f  0.0000000  0.000000000  0.00000000000  0.000000000000000
%f  0.0000000  0.000000000  0.00000000000  0.000000000000000
%i    0    0    0    0      0      0      0      0         0
%i    0    0    0    0      0      0      0      0         0
/* INFORMATION & ANALYSIS CENTER (IAC)            RAPID DATA
/* S/V CLOCKS ARE ALIGNED TO GNSS TIME                      
/* G:C1WC2W R:C1PC2P E:C1XC5X C:C2IC6I J:C1CC2S             
/* PCV:IGS14_2091 OL/AL:FES2004  NONE     YN ORB:CoN CLK:CoN
*  2020 02 28  5  0  0.00000000
PC01 -32314.967601  27095.131173   -104.028507    252.451083
PC02      0.000000      0.000000      0.000000 999999.999999
PC03 -14748.697051  39482.513463   -925.113670    -93.981307
PC04 -39624.702019  14458.466761   -290.297434    -63.281698
PC05      0.000000      0.000000      0.000000 999999.999999
PC06 -21920.210431  34649.776200   9161.962980    242.375316
PC07  -8183.067826  32853.502187  25593.026778   -105.036777
PC08 -17324.261866  17631.052109 -34125.544172   -134.708532
PC09 -11886.448615  34293.113160  21381.845577    365.077769
PC10   2935.658347  39141.774926  16098.110833   -704.280921
PC11  10716.945511  11256.046470 -23110.077494   -209.189808
PC12  -8759.167859  19382.754231 -18036.819073    324.440015
PC13  -1742.179876  23005.026123 -35184.433098    292.863459
PC14  10230.432840  22351.966147  13289.049948    190.864730
PC16 -19292.437902  35355.233990  12200.524169   -754.211467
PC19 -14164.197068 -14054.261678 -19477.292921    337.424650
PC20  -5073.342423 -26839.049927  -5630.481132   -780.964938
PC21  -7375.486001  24086.371217 -12008.742522   -120.041695
PC22 -15213.818958   7179.732105 -22263.211110   -895.290334
PC23  23138.328213    -43.976569 -15599.617085   -904.428792
PC24  10843.961520  19458.458263  16780.199764   -927.624668
PC25  24692.661486  12969.331306    474.975918   -531.119728
PC26  -7653.778345  14206.057821  22760.205448    587.434031
PC27  17173.916429 -19128.654631  10875.900080    285.995236
PC28  25245.057006  -9870.009799  -6620.767936    276.937329
PC29 -18752.536286  -4420.473816  20183.938650    193.626776
PC30  -1297.070748 -17274.751181  21886.054275    278.576302
PC32   7231.371530 -24120.306947  12036.890659   -881.362313
PC33  14256.187314  14062.575773  19450.003785   -936.626286
PC34   1746.873773  17098.265411 -21980.354995   -505.958472
PC35 -24901.448250  10582.174252   6757.632587   -923.009969
PC36 -24325.045758 -13658.880249   -669.403279   -825.841093
PC37   8564.220544 -13690.528212 -22745.011474   -869.844632
PE01 -18646.293813 -22958.328476   1290.783894   -804.033380
PE02  18682.036791  22906.204488  -1379.721634    115.796897
PE03   8983.113088  18217.561652  21534.002941   -271.139032
PE04 -18508.393390   2071.908492 -23003.383238   -474.701748
PE05  -5911.761544  28038.897917   7421.076196   -401.641851
PE07  17258.735233 -21412.177045  10941.033419   -347.085054
PE08  18410.314160  -2457.571424  23046.021242   6214.071589
PE09 -17020.928949  21630.380041 -10904.897928   6142.127099
PE11 -23501.129728  12180.745692 -13223.451404   1475.562119
PE12 -29004.596503    230.406330   5855.762800   5929.642534
PE13  23646.437543 -12136.441500  13050.224263    398.763876
PE14 -20902.342852  11336.281928   9507.285303   -921.485443
PE15  29054.734953   -536.326176  -5638.581147    875.761604
PE18  23962.852327  -1636.003512 -19842.465627  -1019.162417
PE19  -7422.346468 -19894.306546 -20622.247560     -1.346295
PE21  -4844.661340 -24182.750494 -16377.992922   -585.105656
PE24 -12179.890727  11123.786579  24561.816366   5587.177544
PE25   4744.260899  24138.842921  16457.733676   -505.190040
PE26   4078.556248 -16758.135177  24067.851196   3478.652778
PE27  11993.511166 -11279.215879 -24600.136017    273.082590
PE30  21746.097503   8460.228701 -18214.496336   4108.250815
PE31 -21733.437337  -8205.248582  18349.481726   -471.849112
PE33 -17390.751414 -11414.089462  21067.195105   -469.977733
PE36  -4357.020041  16619.824489 -24089.411252    592.653023
PG01  15713.126807  13909.260928 -16684.940750   -309.170174
PG02   8328.232161 -14362.170951  21359.790057   -412.745758
PG03  13240.774562  22197.191998   6274.280471   -105.050308
PG04   8082.241996  13544.887646  21374.544557    -55.055591
PG05    244.940672 -23040.011717  12903.225704     -8.291671
PG06  19831.476816  -7808.404498  15931.744116   -219.073715
PG07  26101.278653   5906.861832   2137.504907   -224.288985
PG08  -1479.083189  20479.138430 -16680.134601    -25.307769
PG09  16196.041461   3208.396381  20755.054505   -165.354924
PG10 -14688.708697   3766.518527 -21734.404192   -260.131141
PG11   4401.835192  15910.676930 -21306.326917   -348.648288
PG12 -10063.782970 -24382.941393   3592.512188    146.409724
PG13  10270.822078 -21375.509396 -11998.351100     -9.623023
PG14 -18551.574587  18829.446064   -788.291332    -29.648957
PG15  -1802.103175 -20483.780280 -16912.108477   -248.530751
PG16  -2276.455134  22864.116669  12706.025357   -129.315236
PG17  20676.483475 -12683.052809 -10334.295182    223.447750
PG18   7176.430152  15487.392609 -20877.338489      4.729850
PG19  20186.671200 -16924.099887  -3695.930806   -192.734236
PG20 -18746.657976  -7126.564291 -17597.391422    527.875016
PG21 -26176.903503  -3456.048147   1578.659994    -34.908479
PG22  10186.910437  24492.332684  -2059.249806   -785.159958
PG23  10033.996793  12505.385690  21495.863008   -133.310029
PG24 -14193.812373 -14371.575703 -17617.978297     -9.671266
PG25 -16174.484111 -16246.618506  13409.489897    -11.411042
PG26  -8082.075479  16317.644453  19228.459582    157.269640
PG27 -10953.136514  22577.313679  -8289.521422   -223.820636
PG28  13816.087885  -4597.913201 -21628.682523    736.372036
PG29 -14548.995281  -5275.165326  21553.462427    -43.905530
PG30  25004.327386  -1923.604995  -9022.249007   -163.504266
PG31 -18186.372983   9050.197017  17311.106142    -26.095052
PG32 -20122.957941  13842.590702 -10190.675954    223.543065
PJ01 -18830.033856  32042.653430 -15311.335953   -326.234165
PJ02 -26163.316833  20471.706421  30797.123566     -1.573568
PJ03 -34825.998273  23803.762201   3204.476589     -0.760733
PR01   8875.734110  11054.538090  21210.440927     57.758399
PR02  11231.393905 -11731.248786  19728.861946    414.152875
PR03   6312.380414 -24096.786513   5650.253633     10.680437
PR04  -2132.749508 -22629.458928 -11555.228650     40.241561
PR05  -9278.393614  -8390.880791 -22223.574668     45.807924
PR07  -6034.919655  24249.494464  -4978.017230    -33.744300
PR08   2198.240479  22618.068799  11625.255622    -50.753115
PR09 -13452.546122   2786.519330  21488.368302    119.143105
PR11  14588.322288  18076.284360  10596.364770    -14.975024
PR12  21062.013109  13027.298350  -6031.355341    109.531815
PR13  15684.714705     61.912290 -20136.309558    -35.365839
PR14   1110.179124 -12664.554485 -22106.605017     48.593772
PR15 -13970.631710 -18050.917067 -11380.280984    106.024377
PR16 -21413.746460 -12409.219137   6415.016514     -1.749381
PR17  14666.533826 -13511.307022  15901.055572    304.716891
PR18  -2128.370906 -10405.113038  23214.179230     26.668512
PR19 -17607.676105  -2338.355307  18312.244774    -81.238778
PR20 -24103.520451   8215.942217    928.104240   -405.241761
PR21 -14014.835921  13458.535191 -16531.466238   -107.828097
PR22   5153.982408   9182.932032 -23225.705165    -15.768143
PR23  21562.912188  -1747.123291 -13522.491294    289.238252
PR26 -24060.646929   6705.144580   5247.943535   -405.481789
EOF
